<?xml version="1.0" ?><gpx xmlns="http://www.topografix.com/GPX/1/1" creator="GaiaGPS" version="1.1" xmlns:xsi="http://www.w3.org/2001/XMLSchema-instance" xsi:schemaLocation="http://www.topografix.com/GPX/1/1 http://www.topografix.com/GPX/1/1/gpx.xsd"><rte><name>two</name><desc></desc><extensions><line xmlns="http://www.topografix.com/GPX/gpx_style/0/2"><color>FF9D00</color></line></extensions><rtept lat="48.603498" lon="-123.53598"><ele>0.0</ele><time>2020-05-09T17:17:11Z</time></rtept><rtept lat="48.603199" lon="-123.536884"><ele>0.0</ele><time>2020-05-09T17:17:11Z</time></rtept><rtept lat="48.603717" lon="-123.538328"><ele>0.0</ele><time>2020-05-09T17:17:11Z</time></rtept><rtept lat="48.604068" lon="-123.541607"><ele>0.0</ele><time>2020-05-09T17:17:11Z</time></rtept><rtept lat="48.604092" lon="-123.544193"><ele>0.0</ele><time>2020-05-09T17:17:11Z</time></rtept><rtept lat="48.605774" lon="-123.54781"><ele>0.0</ele><time>2020-05-09T17:17:11Z</time></rtept><rtept lat="48.60593" lon="-123.551037"><ele>0.0</ele><time>2020-05-09T17:17:11Z</time></rtept><rtept lat="48.606107" lon="-123.553587"><ele>0.0</ele><time>2020-05-09T17:17:11Z</time></rtept><rtept lat="48.605563" lon="-123.55378"><ele>0.0</ele><time>2020-05-09T17:17:11Z</time></rtept><rtept lat="48.604278" lon="-123.553574"><ele>0.0</ele><time>2020-05-09T17:17:11Z</time></rtept><rtept lat="48.604584" lon="-123.554659"><ele>0.0</ele><time>2020-05-09T17:17:11Z</time></rtept><rtept lat="48.605041" lon="-123.555851"><ele>0.0</ele><time>2020-05-09T17:17:11Z</time></rtept><rtept lat="48.604424" lon="-123.556308"><ele>0.0</ele><time>2020-05-09T17:17:11Z</time></rtept><rtept lat="48.602844" lon="-123.555782"><ele>0.0</ele><time>2020-05-09T17:17:11Z</time></rtept><rtept lat="48.601833" lon="-123.554817"><ele>0.0</ele><time>2020-05-09T17:17:11Z</time></rtept><rtept lat="48.600727" lon="-123.554648"><ele>0.0</ele><time>2020-05-09T17:17:11Z</time></rtept><rtept lat="48.598788" lon="-123.554171"><ele>0.0</ele><time>2020-05-09T17:17:11Z</time></rtept><rtept lat="48.596711" lon="-123.553273"><ele>0.0</ele><time>2020-05-09T17:17:11Z</time></rtept><rtept lat="48.595239" lon="-123.553604"><ele>0.0</ele><time>2020-05-09T17:17:11Z</time></rtept><rtept lat="48.593828" lon="-123.552256"><ele>0.0</ele><time>2020-05-09T17:17:11Z</time></rtept><rtept lat="48.593122" lon="-123.552338"><ele>0.0</ele><time>2020-05-09T17:17:11Z</time></rtept></rte></gpx>