<?xml version="1.0" ?><gpx xmlns="http://www.topografix.com/GPX/1/1" creator="GaiaGPS" version="1.1" xmlns:xsi="http://www.w3.org/2001/XMLSchema-instance" xsi:schemaLocation="http://www.topografix.com/GPX/1/1 http://www.topografix.com/GPX/1/1/gpx.xsd"><trk><name>New Track 10/27/23 12:12:47 PM</name><desc></desc><extensions><line xmlns="http://www.topografix.com/GPX/gpx_style/0/2"><color>00DAE1</color></line></extensions><trkseg><trkpt lat="48.603299" lon="-123.535557"><ele>145.85891816766176</ele><time>2023-10-27T19:12:51Z</time></trkpt><trkpt lat="48.603305" lon="-123.535501"><ele>143.3126104631529</ele><time>2023-10-27T19:12:59Z</time></trkpt><trkpt lat="48.603303" lon="-123.535494"><ele>143.61741026620197</ele><time>2023-10-27T19:13:00Z</time></trkpt><trkpt lat="48.603357" lon="-123.53535"><ele>150.8167461236924</ele><time>2023-10-27T19:13:18Z</time></trkpt><trkpt lat="48.603407" lon="-123.535342"><ele>152.91060347355858</ele><time>2023-10-27T19:13:28Z</time></trkpt><trkpt lat="48.603415" lon="-123.535332"><ele>152.9809726946314</ele><time>2023-10-27T19:13:29Z</time></trkpt><trkpt lat="48.603466" lon="-123.535306"><ele>153.0193138536172</ele><time>2023-10-27T19:13:35Z</time></trkpt><trkpt lat="48.603486" lon="-123.535321"><ele>153.83312393726317</ele><time>2023-10-27T19:13:51Z</time></trkpt><trkpt lat="48.603535" lon="-123.535308"><ele>153.69934281041213</ele><time>2023-10-27T19:13:57Z</time></trkpt><trkpt lat="48.603584" lon="-123.53528"><ele>153.1937164356261</ele><time>2023-10-27T19:14:01Z</time></trkpt><trkpt lat="48.603598" lon="-123.535268"><ele>153.07915102555629</ele><time>2023-10-27T19:14:02Z</time></trkpt><trkpt lat="48.603626" lon="-123.535234"><ele>152.41988631163386</ele><time>2023-10-27T19:14:04Z</time></trkpt><trkpt lat="48.603686" lon="-123.535199"><ele>151.1823409380607</ele><time>2023-10-27T19:14:08Z</time></trkpt><trkpt lat="48.603735" lon="-123.535153"><ele>150.04749282510036</ele><time>2023-10-27T19:14:12Z</time></trkpt><trkpt lat="48.603747" lon="-123.535144"><ele>149.69130397482888</ele><time>2023-10-27T19:14:13Z</time></trkpt><trkpt lat="48.603848" lon="-123.535058"><ele>147.5456343517997</ele><time>2023-10-27T19:14:21Z</time></trkpt><trkpt lat="48.603884" lon="-123.535013"><ele>147.07292053138875</ele><time>2023-10-27T19:14:24Z</time></trkpt><trkpt lat="48.603893" lon="-123.535006"><ele>146.5737048310763</ele><time>2023-10-27T19:14:25Z</time></trkpt><trkpt lat="48.603948" lon="-123.53499"><ele>145.06260424920512</ele><time>2023-10-27T19:14:32Z</time></trkpt><trkpt lat="48.604044" lon="-123.534938"><ele>143.70043751538458</ele><time>2023-10-27T19:14:40Z</time></trkpt><trkpt lat="48.604055" lon="-123.534931"><ele>143.16837985919082</ele><time>2023-10-27T19:14:41Z</time></trkpt><trkpt lat="48.60417" lon="-123.534815"><ele>140.36194251834672</ele><time>2023-10-27T19:14:50Z</time></trkpt><trkpt lat="48.604185" lon="-123.534809"><ele>140.01615921496705</ele><time>2023-10-27T19:14:51Z</time></trkpt><trkpt lat="48.604323" lon="-123.534718"><ele>138.57891043034067</ele><time>2023-10-27T19:15:01Z</time></trkpt><trkpt lat="48.604334" lon="-123.534713"><ele>138.65960499589596</ele><time>2023-10-27T19:15:02Z</time></trkpt><trkpt lat="48.604464" lon="-123.534633"><ele>137.25439795259416</ele><time>2023-10-27T19:15:12Z</time></trkpt><trkpt lat="48.604477" lon="-123.534625"><ele>136.98610566895866</ele><time>2023-10-27T19:15:13Z</time></trkpt><trkpt lat="48.604595" lon="-123.534544"><ele>134.2381415384146</ele><time>2023-10-27T19:15:23Z</time></trkpt><trkpt lat="48.604625" lon="-123.534538"><ele>134.16421127114043</ele><time>2023-10-27T19:15:25Z</time></trkpt><trkpt lat="48.604639" lon="-123.534531"><ele>133.9675148404668</ele><time>2023-10-27T19:15:26Z</time></trkpt><trkpt lat="48.604745" lon="-123.534485"><ele>132.91634379851573</ele><time>2023-10-27T19:15:34Z</time></trkpt><trkpt lat="48.604791" lon="-123.534476"><ele>132.96429307600255</ele><time>2023-10-27T19:15:37Z</time></trkpt><trkpt lat="48.604803" lon="-123.534475"><ele>132.8276507651076</ele><time>2023-10-27T19:15:38Z</time></trkpt><trkpt lat="48.60493" lon="-123.534458"><ele>133.13355777145674</ele><time>2023-10-27T19:15:48Z</time></trkpt><trkpt lat="48.604966" lon="-123.534436"><ele>132.78274397312134</ele><time>2023-10-27T19:15:51Z</time></trkpt><trkpt lat="48.60498" lon="-123.534432"><ele>132.96517330874954</ele><time>2023-10-27T19:15:52Z</time></trkpt><trkpt lat="48.605007" lon="-123.534425"><ele>132.94337519076694</ele><time>2023-10-27T19:15:54Z</time></trkpt><trkpt lat="48.605028" lon="-123.534401"><ele>132.4053735081615</ele><time>2023-10-27T19:15:56Z</time></trkpt><trkpt lat="48.605106" lon="-123.534388"><ele>132.37035046368692</ele><time>2023-10-27T19:16:02Z</time></trkpt><trkpt lat="48.60516" lon="-123.534367"><ele>132.54656062091127</ele><time>2023-10-27T19:16:07Z</time></trkpt><trkpt lat="48.605173" lon="-123.534366"><ele>132.12114170182366</ele><time>2023-10-27T19:16:08Z</time></trkpt><trkpt lat="48.605333" lon="-123.534322"><ele>131.85030690802316</ele><time>2023-10-27T19:16:19Z</time></trkpt><trkpt lat="48.605348" lon="-123.534318"><ele>131.95198176157575</ele><time>2023-10-27T19:16:20Z</time></trkpt><trkpt lat="48.605469" lon="-123.534284"><ele>130.43204414066963</ele><time>2023-10-27T19:16:30Z</time></trkpt><trkpt lat="48.60552" lon="-123.53428"><ele>130.3475573765304</ele><time>2023-10-27T19:16:35Z</time></trkpt><trkpt lat="48.605529" lon="-123.534276"><ele>130.2074519396021</ele><time>2023-10-27T19:16:36Z</time></trkpt><trkpt lat="48.605601" lon="-123.534254"><ele>129.57867547657406</ele><time>2023-10-27T19:16:43Z</time></trkpt><trkpt lat="48.605654" lon="-123.534207"><ele>129.01633266396988</ele><time>2023-10-27T19:16:49Z</time></trkpt><trkpt lat="48.605684" lon="-123.534212"><ele>129.3929217444774</ele><time>2023-10-27T19:16:52Z</time></trkpt><trkpt lat="48.605697" lon="-123.534209"><ele>128.99962272863027</ele><time>2023-10-27T19:16:53Z</time></trkpt><trkpt lat="48.60578" lon="-123.534194"><ele>128.85094579230883</ele><time>2023-10-27T19:16:59Z</time></trkpt><trkpt lat="48.605868" lon="-123.53414"><ele>129.7075827829815</ele><time>2023-10-27T19:17:06Z</time></trkpt><trkpt lat="48.605888" lon="-123.534137"><ele>129.7982314544507</ele><time>2023-10-27T19:17:07Z</time></trkpt><trkpt lat="48.605951" lon="-123.534138"><ele>129.38977015244728</ele><time>2023-10-27T19:17:12Z</time></trkpt><trkpt lat="48.606047" lon="-123.534109"><ele>127.27366622302998</ele><time>2023-10-27T19:17:19Z</time></trkpt><trkpt lat="48.60606" lon="-123.534103"><ele>126.82794475711944</ele><time>2023-10-27T19:17:20Z</time></trkpt><trkpt lat="48.606098" lon="-123.534094"><ele>126.49193858835551</ele><time>2023-10-27T19:17:23Z</time></trkpt><trkpt lat="48.606188" lon="-123.534036"><ele>125.16311986423739</ele><time>2023-10-27T19:17:30Z</time></trkpt><trkpt lat="48.606217" lon="-123.534032"><ele>125.27747389646183</ele><time>2023-10-27T19:17:32Z</time></trkpt><trkpt lat="48.606231" lon="-123.534053"><ele>125.17116296486859</ele><time>2023-10-27T19:17:34Z</time></trkpt><trkpt lat="48.60626" lon="-123.53407"><ele>125.79531874156382</ele><time>2023-10-27T19:17:37Z</time></trkpt><trkpt lat="48.606287" lon="-123.534065"><ele>124.58466042240035</ele><time>2023-10-27T19:17:39Z</time></trkpt><trkpt lat="48.60633" lon="-123.534092"><ele>125.12691338972182</ele><time>2023-10-27T19:17:42Z</time></trkpt><trkpt lat="48.606384" lon="-123.534096"><ele>124.79704868675596</ele><time>2023-10-27T19:17:46Z</time></trkpt><trkpt lat="48.606393" lon="-123.534092"><ele>124.40645163208288</ele><time>2023-10-27T19:17:47Z</time></trkpt><trkpt lat="48.606513" lon="-123.533968"><ele>123.25609067578281</ele><time>2023-10-27T19:17:59Z</time></trkpt><trkpt lat="48.606525" lon="-123.533956"><ele>122.9019663353688</ele><time>2023-10-27T19:18:00Z</time></trkpt><trkpt lat="48.606582" lon="-123.5339"><ele>122.13837795513163</ele><time>2023-10-27T19:18:06Z</time></trkpt><trkpt lat="48.60665" lon="-123.533803"><ele>120.99490550194423</ele><time>2023-10-27T19:18:18Z</time></trkpt><trkpt lat="48.606658" lon="-123.533803"><ele>120.6019130874082</ele><time>2023-10-27T19:18:19Z</time></trkpt><trkpt lat="48.606662" lon="-123.533804"><ele>120.49157127503739</ele><time>2023-10-27T19:18:20Z</time></trkpt><trkpt lat="48.606681" lon="-123.533825"><ele>121.43687643685165</ele><time>2023-10-27T19:18:25Z</time></trkpt><trkpt lat="48.606736" lon="-123.533801"><ele>120.87700711973861</ele><time>2023-10-27T19:18:28Z</time></trkpt><trkpt lat="48.606801" lon="-123.533806"><ele>119.4023438433126</ele><time>2023-10-27T19:18:32Z</time></trkpt><trkpt lat="48.606813" lon="-123.533805"><ele>119.20485916916894</ele><time>2023-10-27T19:18:33Z</time></trkpt><trkpt lat="48.60684" lon="-123.533783"><ele>115.80800418177532</ele><time>2023-10-27T19:19:09Z</time></trkpt><trkpt lat="48.60685" lon="-123.533749"><ele>116.31089177058827</ele><time>2023-10-27T19:19:13Z</time></trkpt><trkpt lat="48.606891" lon="-123.533743"><ele>117.00187283558662</ele><time>2023-10-27T19:19:19Z</time></trkpt><trkpt lat="48.606936" lon="-123.533703"><ele>116.86962450703697</ele><time>2023-10-27T19:19:42Z</time></trkpt><trkpt lat="48.606939" lon="-123.533661"><ele>113.67739021950264</ele><time>2023-10-27T19:20:02Z</time></trkpt><trkpt lat="48.606936" lon="-123.533638"><ele>113.16015729569484</ele><time>2023-10-27T19:20:03Z</time></trkpt><trkpt lat="48.606925" lon="-123.533593"><ele>112.54900323482043</ele><time>2023-10-27T19:20:07Z</time></trkpt><trkpt lat="48.606936" lon="-123.533565"><ele>113.60330928337557</ele><time>2023-10-27T19:20:10Z</time></trkpt><trkpt lat="48.606973" lon="-123.533529"><ele>113.15358101038422</ele><time>2023-10-27T19:20:15Z</time></trkpt><trkpt lat="48.606962" lon="-123.533426"><ele>112.85561027437073</ele><time>2023-10-27T19:20:20Z</time></trkpt><trkpt lat="48.60696" lon="-123.533406"><ele>113.05360473225889</ele><time>2023-10-27T19:20:21Z</time></trkpt><trkpt lat="48.606958" lon="-123.533326"><ele>113.20207589724033</ele><time>2023-10-27T19:20:26Z</time></trkpt><trkpt lat="48.606947" lon="-123.533293"><ele>111.72524118385572</ele><time>2023-10-27T19:20:29Z</time></trkpt><trkpt lat="48.606968" lon="-123.533272"><ele>112.25491942201857</ele><time>2023-10-27T19:20:36Z</time></trkpt><trkpt lat="48.606965" lon="-123.533233"><ele>113.31442390650552</ele><time>2023-10-27T19:20:42Z</time></trkpt><trkpt lat="48.60699" lon="-123.533171"><ele>112.20828425984105</ele><time>2023-10-27T19:20:47Z</time></trkpt><trkpt lat="48.606991" lon="-123.533159"><ele>112.02995904129936</ele><time>2023-10-27T19:20:48Z</time></trkpt><trkpt lat="48.606992" lon="-123.533131"><ele>111.88880948579569</ele><time>2023-10-27T19:20:50Z</time></trkpt><trkpt lat="48.607014" lon="-123.533079"><ele>111.51627811066214</ele><time>2023-10-27T19:20:52Z</time></trkpt><trkpt lat="48.607027" lon="-123.532926"><ele>110.5872286088497</ele><time>2023-10-27T19:21:14Z</time></trkpt><trkpt lat="48.607028" lon="-123.532915"><ele>110.55649695664177</ele><time>2023-10-27T19:21:15Z</time></trkpt><trkpt lat="48.607037" lon="-123.532811"><ele>109.7156470995886</ele><time>2023-10-27T19:21:23Z</time></trkpt><trkpt lat="48.60702" lon="-123.532703"><ele>108.97277588255248</ele><time>2023-10-27T19:21:36Z</time></trkpt><trkpt lat="48.607007" lon="-123.532677"><ele>109.39641986048382</ele><time>2023-10-27T19:21:37Z</time></trkpt><trkpt lat="48.606997" lon="-123.532662"><ele>109.14319030664971</ele><time>2023-10-27T19:21:38Z</time></trkpt><trkpt lat="48.60699" lon="-123.532654"><ele>109.11447138274644</ele><time>2023-10-27T19:21:39Z</time></trkpt><trkpt lat="48.607002" lon="-123.532585"><ele>107.46375215964213</ele><time>2023-10-27T19:21:51Z</time></trkpt><trkpt lat="48.606975" lon="-123.53257"><ele>107.09888891746512</ele><time>2023-10-27T19:21:57Z</time></trkpt><trkpt lat="48.606965" lon="-123.532528"><ele>108.00369598393843</ele><time>2023-10-27T19:22:04Z</time></trkpt><trkpt lat="48.606975" lon="-123.532472"><ele>107.41433635154605</ele><time>2023-10-27T19:22:10Z</time></trkpt><trkpt lat="48.606996" lon="-123.532459"><ele>106.1501277349844</ele><time>2023-10-27T19:22:19Z</time></trkpt><trkpt lat="48.607019" lon="-123.532471"><ele>105.9420336450498</ele><time>2023-10-27T19:22:33Z</time></trkpt></trkseg></trk></gpx>